NAVSTAR 54 (USA 177)
1 28190U 04009A   26118.33075000 -.00000063  00000+0  00000+0 0  9997
2 28190  54.8723 277.7002 0113771 170.9168  44.5263  2.00556338161945
